CCSDS_OMM_VERS = 2.0
CREATION_DATE  = 
ORIGINATOR     = 

OBJECT_NAME    = CZ-2D R/B
OBJECT_ID      = 2005-024B
CENTER_NAME    = EARTH
REF_FRAME      = TEME
TIME_SYSTEM    = UTC
MEAN_ELEMENT_THEORY = SGP/SGP4

EPOCH          = 2025-11-24T00:43:39.870048
MEAN_MOTION    = 15.51925590
ECCENTRICITY   = .0007936
INCLINATION    = 97.3643
RA_OF_ASC_NODE = 335.0053
ARG_OF_PERICENTER = 60.7119
MEAN_ANOMALY   = 299.4926

EPHEMERIS_TYPE = 0
CLASSIFICATION_TYPE = U
NORAD_CAT_ID   = 28738
ELEMENT_SET_NO = 999
REV_AT_EPOCH   = 12335
BSTAR          = .4692E-3
MEAN_MOTION_DOT = .28147E-3
MEAN_MOTION_DDOT = 0

CCSDS_OMM_VERS = 2.0
CREATION_DATE  = 
ORIGINATOR     = 

OBJECT_NAME    = ALOS (DAICHI)
OBJECT_ID      = 2006-002A
CENTER_NAME    = EARTH
REF_FRAME      = TEME
TIME_SYSTEM    = UTC
MEAN_ELEMENT_THEORY = SGP/SGP4

EPOCH          = 2025-11-23T20:00:07.663392
MEAN_MOTION    = 14.69399646
ECCENTRICITY   = .000076
INCLINATION    = 98.1066
RA_OF_ASC_NODE = 279.4582
ARG_OF_PERICENTER = 70.7085
MEAN_ANOMALY   = 289.4202

EPHEMERIS_TYPE = 0
CLASSIFICATION_TYPE = U
NORAD_CAT_ID   = 28931
ELEMENT_SET_NO = 999
REV_AT_EPOCH   = 5793
BSTAR          = .28401E-3
MEAN_MOTION_DOT = .1631E-4
MEAN_MOTION_DDOT = 0

CCSDS_OMM_VERS = 2.0
CREATION_DATE  = 
ORIGINATOR     = 

OBJECT_NAME    = H-2A R/B
OBJECT_ID      = 2006-002B
CENTER_NAME    = EARTH
REF_FRAME      = TEME
TIME_SYSTEM    = UTC
MEAN_ELEMENT_THEORY = SGP/SGP4

EPOCH          = 2025-11-23T22:51:55.890144
MEAN_MOTION    = 15.14028327
ECCENTRICITY   = .0054367
INCLINATION    = 98.2314
RA_OF_ASC_NODE = 101.1770
ARG_OF_PERICENTER = 240.2834
MEAN_ANOMALY   = 119.2978

EPHEMERIS_TYPE = 0
CLASSIFICATION_TYPE = U
NORAD_CAT_ID   = 28932
ELEMENT_SET_NO = 999
REV_AT_EPOCH   = 7842
BSTAR          = .55881E-3
MEAN_MOTION_DOT = .10459E-3
MEAN_MOTION_DDOT = 0

CCSDS_OMM_VERS = 2.0
CREATION_DATE  = 
ORIGINATOR     = 

OBJECT_NAME    = RESURS-DK 1
OBJECT_ID      = 2006-021A
CENTER_NAME    = EARTH
REF_FRAME      = TEME
TIME_SYSTEM    = UTC
MEAN_ELEMENT_THEORY = SGP/SGP4

EPOCH          = 2025-11-23T21:51:16.272864
MEAN_MOTION    = 15.12000318
ECCENTRICITY   = .0007368
INCLINATION    = 69.9304
RA_OF_ASC_NODE = 150.4910
ARG_OF_PERICENTER = 273.1810
MEAN_ANOMALY   = 86.8513

EPHEMERIS_TYPE = 0
CLASSIFICATION_TYPE = U
NORAD_CAT_ID   = 29228
ELEMENT_SET_NO = 999
REV_AT_EPOCH   = 7153
BSTAR          = .19097E-3
MEAN_MOTION_DOT = .3182E-4
MEAN_MOTION_DDOT = 0

CCSDS_OMM_VERS = 2.0
CREATION_DATE  = 
ORIGINATOR     = 

OBJECT_NAME    = CZ-4B R/B
OBJECT_ID      = 2006-046C
CENTER_NAME    = EARTH
REF_FRAME      = TEME
TIME_SYSTEM    = UTC
MEAN_ELEMENT_THEORY = SGP/SGP4

EPOCH          = 2025-11-24T02:04:20.836128
MEAN_MOTION    = 15.15600238
ECCENTRICITY   = .0032584
INCLINATION    = 97.5753
RA_OF_ASC_NODE = 8.2761
ARG_OF_PERICENTER = 273.4989
MEAN_ANOMALY   = 86.2516

EPHEMERIS_TYPE = 0
CLASSIFICATION_TYPE = U
NORAD_CAT_ID   = 29507
ELEMENT_SET_NO = 999
REV_AT_EPOCH   = 4404
BSTAR          = .27524E-3
MEAN_MOTION_DOT = .5226E-4
MEAN_MOTION_DDOT = 0

CCSDS_OMM_VERS = 2.0
CREATION_DATE  = 
ORIGINATOR     = 

OBJECT_NAME    = CZ-2C R/B
OBJECT_ID      = 2007-010B
CENTER_NAME    = EARTH
REF_FRAME      = TEME
TIME_SYSTEM    = UTC
MEAN_ELEMENT_THEORY = SGP/SGP4

EPOCH          = 2025-11-23T21:47:13.094880
MEAN_MOTION    = 14.20198358
ECCENTRICITY   = .0058064
INCLINATION    = 98.3970
RA_OF_ASC_NODE = 81.5072
ARG_OF_PERICENTER = 241.2158
MEAN_ANOMALY   = 118.3181

EPHEMERIS_TYPE = 0
CLASSIFICATION_TYPE = U
NORAD_CAT_ID   = 31114
ELEMENT_SET_NO = 999
REV_AT_EPOCH   = 96470
BSTAR          = .11649E-3
MEAN_MOTION_DOT = .211E-5
MEAN_MOTION_DDOT = 0

CCSDS_OMM_VERS = 2.0
CREATION_DATE  = 
ORIGINATOR     = 

OBJECT_NAME    = COSMO-SKYMED 1
OBJECT_ID      = 2007-023A
CENTER_NAME    = EARTH
REF_FRAME      = TEME
TIME_SYSTEM    = UTC
MEAN_ELEMENT_THEORY = SGP/SGP4

EPOCH          = 2025-11-24T04:33:00.374688
MEAN_MOTION    = 14.95562670
ECCENTRICITY   = .0001249
INCLINATION    = 97.8839
RA_OF_ASC_NODE = 153.4694
ARG_OF_PERICENTER = 91.1536
MEAN_ANOMALY   = 268.9827

EPHEMERIS_TYPE = 0
CLASSIFICATION_TYPE = U
NORAD_CAT_ID   = 31598
ELEMENT_SET_NO = 999
REV_AT_EPOCH   = 99912
BSTAR          = .38253E-3
MEAN_MOTION_DOT = .4184E-4
MEAN_MOTION_DDOT = 0

CCSDS_OMM_VERS = 2.0
CREATION_DATE  = 
ORIGINATOR     = 

OBJECT_NAME    = COSMOS 2428
OBJECT_ID      = 2007-029A
CENTER_NAME    = EARTH
REF_FRAME      = TEME
TIME_SYSTEM    = UTC
MEAN_ELEMENT_THEORY = SGP/SGP4

EPOCH          = 2025-11-23T16:38:56.982912
MEAN_MOTION    = 14.12886771
ECCENTRICITY   = .0002645
INCLINATION    = 70.9370
RA_OF_ASC_NODE = 65.8661
ARG_OF_PERICENTER = 54.7769
MEAN_ANOMALY   = 305.3600

EPHEMERIS_TYPE = 0
CLASSIFICATION_TYPE = U
NORAD_CAT_ID   = 31792
ELEMENT_SET_NO = 999
REV_AT_EPOCH   = 94912
BSTAR          = -.47236E-4
MEAN_MOTION_DOT = -.136E-5
MEAN_MOTION_DDOT = 0

CCSDS_OMM_VERS = 2.0
CREATION_DATE  = 
ORIGINATOR     = 

OBJECT_NAME    = SL-16 R/B
OBJECT_ID      = 2007-029B
CENTER_NAME    = EARTH
REF_FRAME      = TEME
TIME_SYSTEM    = UTC
MEAN_ELEMENT_THEORY = SGP/SGP4

EPOCH          = 2025-11-23T15:56:08.753280
MEAN_MOTION    = 14.14816578
ECCENTRICITY   = .0002307
INCLINATION    = 70.9778
RA_OF_ASC_NODE = 35.2554
ARG_OF_PERICENTER = 264.6204
MEAN_ANOMALY   = 210.7435

EPHEMERIS_TYPE = 0
CLASSIFICATION_TYPE = U
NORAD_CAT_ID   = 31793
ELEMENT_SET_NO = 999
REV_AT_EPOCH   = 95037
BSTAR          = .59629E-4
MEAN_MOTION_DOT = .67E-6
MEAN_MOTION_DDOT = 0

CCSDS_OMM_VERS = 2.0
CREATION_DATE  = 
ORIGINATOR     = 

OBJECT_NAME    = KORONAS-FOTON
OBJECT_ID      = 2009-003A
CENTER_NAME    = EARTH
REF_FRAME      = TEME
TIME_SYSTEM    = UTC
MEAN_ELEMENT_THEORY = SGP/SGP4

EPOCH          = 2025-11-23T15:53:15.567072
MEAN_MOTION    = 15.40585039
ECCENTRICITY   = .0011883
INCLINATION    = 82.4325
RA_OF_ASC_NODE = 25.8631
ARG_OF_PERICENTER = 171.7556
MEAN_ANOMALY   = 188.3887

EPHEMERIS_TYPE = 0
CLASSIFICATION_TYPE = U
NORAD_CAT_ID   = 33504
ELEMENT_SET_NO = 999
REV_AT_EPOCH   = 92940
BSTAR          = .26685E-3
MEAN_MOTION_DOT = .10915E-3
MEAN_MOTION_DDOT = 0

CCSDS_OMM_VERS = 2.0
CREATION_DATE  = 
ORIGINATOR     = 

OBJECT_NAME    = CZ-2C R/B
OBJECT_ID      = 2011-030B
CENTER_NAME    = EARTH
REF_FRAME      = TEME
TIME_SYSTEM    = UTC
MEAN_ELEMENT_THEORY = SGP/SGP4

EPOCH          = 2025-11-23T22:34:26.255424
MEAN_MOTION    = 14.80804911
ECCENTRICITY   = .0052426
INCLINATION    = 97.8390
RA_OF_ASC_NODE = 282.4673
ARG_OF_PERICENTER = 336.2041
MEAN_ANOMALY   = 64.4702

EPHEMERIS_TYPE = 0
CLASSIFICATION_TYPE = U
NORAD_CAT_ID   = 37731
ELEMENT_SET_NO = 999
REV_AT_EPOCH   = 77444
BSTAR          = .25364E-3
MEAN_MOTION_DOT = .1947E-4
MEAN_MOTION_DDOT = 0

CCSDS_OMM_VERS = 2.0
CREATION_DATE  = 
ORIGINATOR     = 

OBJECT_NAME    = H-2A R/B
OBJECT_ID      = 2012-025E
CENTER_NAME    = EARTH
REF_FRAME      = TEME
TIME_SYSTEM    = UTC
MEAN_ELEMENT_THEORY = SGP/SGP4

EPOCH          = 2025-11-23T21:23:10.900896
MEAN_MOTION    = 14.94261308
ECCENTRICITY   = .0043845
INCLINATION    = 98.4575
RA_OF_ASC_NODE = 281.6729
ARG_OF_PERICENTER = 300.0617
MEAN_ANOMALY   = 59.6256

EPHEMERIS_TYPE = 0
CLASSIFICATION_TYPE = U
NORAD_CAT_ID   = 38341
ELEMENT_SET_NO = 999
REV_AT_EPOCH   = 73241
BSTAR          = .43702E-3
MEAN_MOTION_DOT = .4711E-4
MEAN_MOTION_DDOT = 0

