CZ-2D R/B               
1 28738U 05024B   25328.03032257  .00028147  00000+0  46920-3 0  9996
2 28738  97.3643 335.0053 0007936  60.7119 299.4926 15.51925590123357
ALOS (DAICHI)           
1 28931U 06002A   25327.83342203  .00001631  00000+0  28401-3 0  9993
2 28931  98.1066 279.4582 0000760  70.7085 289.4202 14.69399646 57930
H-2A R/B                
1 28932U 06002B   25327.95273021  .00010459  00000+0  55881-3 0  9998
2 28932  98.2314 101.1770 0054367 240.2834 119.2978 15.14028327 78429
RESURS-DK 1             
1 29228U 06021A   25327.91060501  .00003182  00000+0  19097-3 0  9995
2 29228  69.9304 150.4910 0007368 273.1810  86.8513 15.12000318 71530
CZ-4B R/B               
1 29507U 06046C   25328.08635227  .00005226  00000+0  27524-3 0  9999
2 29507  97.5753   8.2761 0032584 273.4989  86.2516 15.15600238 44040
CZ-2C R/B               
1 31114U 07010B   25327.90779045  .00000211  00000+0  11649-3 0  9995
2 31114  98.3970  81.5072 0058064 241.2158 118.3181 14.20198358964707
COSMO-SKYMED 1          
1 31598U 07023A   25328.18958767  .00004184  00000+0  38253-3 0  9999
2 31598  97.8839 153.4694 0001249  91.1536 268.9827 14.95562670999122
COSMOS 2428             
1 31792U 07029A   25327.69371508 -.00000136  00000+0 -47236-4 0  9995
2 31792  70.9370  65.8661 0002645  54.7769 305.3600 14.12886771949124
SL-16 R/B               
1 31793U 07029B   25327.66399020  .00000067  00000+0  59629-4 0  9992
2 31793  70.9778  35.2554 0002307 264.6204 210.7435 14.14816578950374
KORONAS-FOTON           
1 33504U 09003A   25327.66198573  .00010915  00000+0  26685-3 0  9996
2 33504  82.4325  25.8631 0011883 171.7556 188.3887 15.40585039929406
CZ-2C R/B               
1 37731U 11030B   25327.94058166  .00001947  00000+0  25364-3 0  9997
2 37731  97.8390 282.4673 0052426 336.2041  64.4702 14.80804911774444
H-2A R/B                
1 38341U 12025E   25327.89109839  .00004711  00000+0  43702-3 0  9996
2 38341  98.4575 281.6729 0043845 300.0617  59.6256 14.94261308732413
